NORAD_CAT_ID,OBJECT_NAME,OBJECT_TYPE,EPOCH,MEAN_MOTION,ECCENTRICITY,INCLINATION,RA_OF_ASC_NODE,ARG_OF_PERICENTER,MEAN_ANOMALY,BSTAR,MEAN_MOTION_DOT,MEAN_MOTION_DDOT,TLE_LINE0,TLE_LINE1,TLE_LINE2,SEMIMAJOR_AXIS,PERIOD,APOGEE,PERIGEE,DECAYED
52647.0,STARLINK-3846,PAYLOAD,2022-08-02 12:00:00,15.50651102,0.000152,53.2174,46.209,58.0125,90.189,-0.014126,-0.00759836,0.0,0 STARLINK-3846,1 52647U 22052BB  22214.50001157 -.00759836  00000-0 -14126-1 0  9990,2 52647  53.2174  46.2090 0001520  58.0125  90.1890 15.50651102 12914,6792.9609999999975,92.864,415.858,413.793,0.0
52647.0,STARLINK-3846,PAYLOAD,2022-08-02 14:00:01,15.50445698,0.0001575,53.2175,45.81100000000001,62.4431,191.2167,-0.011491,-0.00615942,0.0,0 STARLINK-3846,1 52647U 22052BB  22214.58334491 -.00615942  00000-0 -11491-1 0  9999,2 52647  53.2175  45.8110 0001575  62.4431 191.2167 15.50445698  1304,6793.561,92.877,416.496,414.356,0.0
52647.0,STARLINK-3846,PAYLOAD,2022-08-03 04:00:00,15.49879322,0.0001284999999999,53.2152,43.0162,51.203,219.2859,0.00015159,8.159e-05,0.0,0 STARLINK-3846,1 52647U 22052BB  22215.16667824  .00008159  00000-0  15159-3 0  9994,2 52647  53.2152  43.0162 0001285  51.2030 219.2859 15.49879322 13018,6795.215999999999,92.91,417.954,416.208,0.0
52647.0,STARLINK-3846,PAYLOAD,2022-08-03 14:00:01,15.49908077,0.0001205999999999,53.2159,41.0233,55.5084,21.1157,-0.00016144,-9.61e-05,0.0,0 STARLINK-3846,1 52647U 22052BB  22215.58334491 -.00009610  00000-0 -16144-3 0  9991,2 52647  53.2159  41.0233 0001206  55.5084  21.1157 15.49908077  1301,6795.132,92.909,417.816,416.177,0.0
52647.0,STARLINK-3846,PAYLOAD,2022-08-03 22:00:01,15.498729699999998,0.0001439,53.2171,39.4372,48.9622,88.6746,0.0015972,0.00091222,0.0,0 STARLINK-3846,1 52647U 22052BB  22215.91668981  .00091222  00000-0  15972-2 0  9997,2 52647  53.2171  39.4372 0001439  48.9622  88.6746 15.49872970  1306,6795.234,92.911,418.077,416.122,0.0
52647.0,STARLINK-3846,PAYLOAD,2022-08-04 04:00:00,15.50255303,0.0001527,53.217,38.2445,45.3275,47.889,-0.0214919999999999,-0.01116335,0.0,0 STARLINK-3846,1 52647U 22052BB  22216.16667824 -.01116335  00000-0 -21492-1 0  9999,2 52647  53.2170  38.2445 0001527  45.3275  47.8890 15.50255303 13178,6794.1169999999975,92.888,417.02,414.945,0.0
52647.0,STARLINK-3846,PAYLOAD,2022-08-04 14:00:01,15.4923125,0.0001391,53.2176,36.2584,56.4337,202.7094,-0.021001,-0.01057594,0.0,0 STARLINK-3846,1 52647U 22052BB  22216.58334491 -.01057594  00000-0 -21001-1 0  9993,2 52647  53.2176  36.2584 0001391  56.4337 202.7094 15.49231250  1300,6797.111,92.949,419.921,418.03,0.0
52647.0,STARLINK-3846,PAYLOAD,2022-08-04 22:00:00,15.48471106,0.0001193,53.2175,34.672,66.5605,252.2442,-0.021552,-0.0105659999999999,0.0,0 STARLINK-3846,1 52647U 22052BB  22216.91667824 -.01056600  00000-0 -21552-1 0  9997,2 52647  53.2175  34.6720 0001193  66.5605 252.2442 15.48471106  1305,6799.335,92.995,422.011,420.389,0.0
52647.0,STARLINK-3846,PAYLOAD,2022-08-05 12:00:00,15.47141871,0.0001288,53.2176,31.8951,53.9596,277.0592,-0.022558,-0.01055638,0.0,0 STARLINK-3846,1 52647U 22052BB  22217.50001157 -.01055638  00000-0 -22558-1 0  9991,2 52647  53.2176  31.8951 0001288  53.9596 277.0592 15.47141871 13378,6803.229,93.075,425.97,424.218,0.0
52647.0,STARLINK-3846,PAYLOAD,2022-08-05 14:00:01,15.46953532,0.0001435,53.2175,31.4997,47.1931,28.2634,-0.022787,-0.01059065,0.0,0 STARLINK-3846,1 52647U 22052BB  22217.58335648 -.01059065  00000-0 -22787-1 0  9996,2 52647  53.2175  31.4997 0001435  47.1931  28.2634 15.46953532  1302,6803.781,93.086,426.622,424.67,0.0
52647.0,STARLINK-3846,PAYLOAD,2022-08-05 22:00:00,15.46188977,0.0001402,53.2175,29.9187,56.4895,75.8278,-0.023193,-0.01050491,0.0,0 STARLINK-3846,1 52647U 22052BB  22217.91667824 -.01050491  00000-0 -23193-1 0  9993,2 52647  53.2175  29.9187 0001402  56.4895  75.8278 15.46188977  1306,6806.024,93.132,428.843,426.935,0.0
52647.0,STARLINK-3846,PAYLOAD,2022-08-06 04:00:03,15.45622936,0.000147,53.2174,28.7313,45.1715,39.3688,-0.023805,-0.01056684,0.0,0 STARLINK-3846,1 52647U 22052BB  22218.16670139 -.01056684  00000-0 -23805-1 0  9994,2 52647  53.2174  28.7313 0001470  45.1715  39.3688 15.45622936 13483,6807.685,93.166,430.551,428.55,0.0
52647.0,STARLINK-3846,PAYLOAD,2022-08-06 09:51:44,15.46947984,5.09e-05,53.2168,27.5588,108.6332,251.4732,-0.0057156,-0.00282736,0.0,0 STARLINK-3846,1 52647U 22052BB  22218.41093220 -.00282736  00000-0 -57156-2 0  9997,2 52647  53.2168  27.5588 0000509 108.6332 251.4732 15.46947984 13525,6803.797,93.087,426.009,425.316,0.0
52647.0,STARLINK-3846,PAYLOAD,2022-08-06 14:00:01,15.44673128,0.0001406,53.2176,26.7576,60.6633,182.7642,-0.024555,-0.01055048,0.0,0 STARLINK-3846,1 52647U 22052BB  22218.58334491 -.01055048  00000-0 -24555-1 0  9994,2 52647  53.2176  26.7576 0001406  60.6633 182.7642 15.44673128  1303,6810.476,93.224,433.298,431.383,0.0
52647.0,STARLINK-3846,PAYLOAD,2022-08-06 20:00:01,15.44102879,0.0001441999999999,53.2177,25.5757,61.6851,132.4674,-0.025008,-0.01053857,0.0,0 STARLINK-3846,1 52647U 22052BB  22218.83334491 -.01053857  00000-0 -25008-1 0  9992,2 52647  53.2177  25.5757 0001442  61.6851 132.4674 15.44102879 13585,6812.151999999999,93.258,435.0,433.035,0.0
52647.0,STARLINK-3846,PAYLOAD,2022-08-06 22:00:00,15.43912242,0.0001256,53.2175,25.1818,62.4552,235.1582,-0.025128,-0.0105216,0.0,0 STARLINK-3846,1 52647U 22052BB  22218.91667824 -.01052160  00000-0 -25128-1 0  9999,2 52647  53.2175  25.1818 0001256  62.4552 235.1582 15.43912242  1305,6812.7130000000025,93.27,435.434,433.722,0.0
52647.0,STARLINK-3846,PAYLOAD,2022-08-07 12:00:00,15.42585526,0.0001498,53.2177,22.4242,45.3571,254.8865,-0.02638,-0.01070391,0.0,0 STARLINK-3846,1 52647U 22052BB  22219.50001157 -.01070391  00000-0 -26380-1 0  9993,2 52647  53.2177  22.4242 0001498  45.3571 254.8865 15.42585526 13683,6816.619000000002,93.35,439.505,437.463,0.0
52647.0,STARLINK-3846,PAYLOAD,2022-08-07 14:00:01,15.42396636,0.0001598,53.2177,22.0318,37.6319,5.6160000000000005,-0.026621,-0.01073094,0.0,0 STARLINK-3846,1 52647U 22052BB  22219.58334491 -.01073094  00000-0 -26621-1 0  9992,2 52647  53.2177  22.0318 0001598  37.6319   5.6160 15.42396636  1306,6817.175,93.361,440.13,437.951,0.0
52647.0,STARLINK-3846,PAYLOAD,2022-08-07 22:00:00,15.41632994,0.0001376999999999,53.2174,20.4611,53.4737,41.2234,-0.027107,-0.01065552,0.0,0 STARLINK-3846,1 52647U 22052BB  22219.91667824 -.01065552  00000-0 -27107-1 0  9998,2 52647  53.2174  20.4611 0001377  53.4737  41.2234 15.41632994  1303,6819.426,93.407,442.23,440.352,0.0
52647.0,STARLINK-3846,PAYLOAD,2022-08-08 04:00:00,15.41065871,0.0001419999999999,53.2176,19.282,44.6869,357.9979,-0.02777,-0.01070638,0.0,0 STARLINK-3846,1 52647U 22052BB  22220.16667824 -.01070638  00000-0 -27770-1 0  9994,2 52647  53.2176  19.2820 0001420  44.6869 357.9979 15.41065871 13793,6821.099,93.442,443.9330000000001,441.996,0.0
52647.0,STARLINK-3846,PAYLOAD,2022-08-08 14:00:01,15.40115324,0.0001702,53.2178,17.3221,44.9744,149.9457,-0.028581,-0.01067851,0.0,0 STARLINK-3846,1 52647U 22052BB  22220.58335648 -.01067851  00000-0 -28581-1 0  9990,2 52647  53.2178  17.3221 0001702  44.9744 149.9457 15.40115324  1309,6823.906,93.499,446.932,444.609,0.0
52647.0,STARLINK-3846,PAYLOAD,2022-08-08 20:00:01,15.39544228,0.0001584,53.2177,16.148,49.4239,92.1149,-0.029063,-0.0106565,0.0,0 STARLINK-3846,1 52647U 22052BB  22220.83335648 -.01065650  00000-0 -29063-1 0  9999,2 52647  53.2177  16.1480 0001584  49.4239  92.1149 15.39544228 13890,6825.593000000003,93.534,448.539,446.377,0.0
52647.0,STARLINK-3846,PAYLOAD,2022-08-08 22:00:00,15.39354481,0.0001478,53.2173,15.7568,53.3709,190.1951,-0.029217,-0.01064654,0.0,0 STARLINK-3846,1 52647U 22052BB  22220.91667824 -.01064654  00000-0 -29217-1 0  9996,2 52647  53.2173  15.7568 0001478  53.3709 190.1951 15.39354481  1309,6826.154,93.546,449.028,447.01,0.0
52647.0,STARLINK-3846,PAYLOAD,2022-08-09 12:00:00,15.38026228,0.000156,53.2176,13.0185,51.5879,185.026,-0.0305779999999999,-0.01066456,0.0,0 STARLINK-3846,1 52647U 22052BB  22221.50001157 -.01066456  00000-0 -30578-1 0  9997,2 52647  53.2176  13.0185 0001560  51.5879 185.0260 15.38026228 13996,6830.084,93.626,453.014,450.883,0.0
52647.0,STARLINK-3846,PAYLOAD,2022-08-09 14:00:01,15.37838282,0.000145,53.2177,12.6286,45.1018,293.1467,-0.030868,-0.01069659,0.0,0 STARLINK-3846,1 52647U 22052BB  22221.58334491 -.01069659  00000-0 -30868-1 0  9995,2 52647  53.2177  12.6286 0001450  45.1018 293.1467 15.37838282  1308,6830.64,93.638,453.495,451.515,0.0
52647.0,STARLINK-3846,PAYLOAD,2022-08-09 22:00:00,15.37077852,0.0001281,53.2172,11.0687,52.8926,331.3278,-0.031566,-0.01067204,0.0,0 STARLINK-3846,1 52647U 22052BB  22221.91667824 -.01067204  00000-0 -31566-1 0  9991,2 52647  53.2172  11.0687 0001281  52.8926 331.3278 15.37077852  1309,6832.893,93.684,455.633,453.882,0.0
52647.0,STARLINK-3846,PAYLOAD,2022-08-10 04:00:00,15.36509912,0.0001347,53.2175,9.8976,49.4377,278.6639,-0.032285,-0.01071215,0.0,0 STARLINK-3846,1 52647U 22052BB  22222.16667824 -.01071215  00000-0 -32285-1 0  9995,2 52647  53.2175   9.8976 0001347  49.4377 278.6639 15.36509912 14093,6834.576,93.719,457.362,455.521,0.0
52647.0,STARLINK-3846,PAYLOAD,2022-08-10 14:00:01,15.35558413,0.0001764,53.2174,7.9515,39.1969,74.2314,-0.033168,-0.01067583,0.0,0 STARLINK-3846,1 52647U 22052BB  22222.58334491 -.01067583  00000-0 -33168-1 0  9996,2 52647  53.2174   7.9515 0001764  39.1969  74.2314 15.35558413  1305,6837.399,93.777,460.47,458.0580000000001,0.0
52647.0,STARLINK-3846,PAYLOAD,2022-08-10 22:00:00,15.34798815,0.0001459,53.2172,6.3967,57.6197,99.0425,-0.033955,-0.01066557,0.0,0 STARLINK-3846,1 52647U 22052BB  22222.91667824 -.01066557  00000-0 -33955-1 0  9996,2 52647  53.2172   6.3967 0001459  57.6197  99.0425 15.34798815  1305,6839.655,93.823,462.518,460.522,0.0
